NORAD_CAT_ID,OBJECT_NAME,OBJECT_TYPE,EPOCH,MEAN_MOTION,ECCENTRICITY,INCLINATION,RA_OF_ASC_NODE,ARG_OF_PERICENTER,MEAN_ANOMALY,BSTAR,MEAN_MOTION_DOT,MEAN_MOTION_DDOT,TLE_LINE0,TLE_LINE1,TLE_LINE2,SEMIMAJOR_AXIS,PERIOD,APOGEE,PERIGEE,DECAYED
53006.0,STARLINK-4290,PAYLOAD,2023-04-03 11:58:43,15.08841723,0.0001312,53.2144,222.8805,84.7311,275.383,0.00012786,1.748e-05,0.0,0 STARLINK-4290,1 53006U 22076W   23093.49911156  .00001748  00000-0  12786-3 0  9991,2 53006  53.2144 222.8805 0001312  84.7311 275.3830 15.08841723 41139,6917.875,95.437,540.648,538.832,0.0
53006.0,STARLINK-4290,PAYLOAD,2023-04-04 11:49:30,15.08849444,0.0001258,53.2141,218.42,82.3085,277.805,0.00042967,6.559e-05,0.0,0 STARLINK-4290,1 53006U 22076W   23094.49270983  .00006559  00000-0  42967-3 0  9997,2 53006  53.2141 218.4200 0001258  82.3085 277.8050 15.08849444 41282,6917.852,95.437,540.587,538.846,0.0
53006.0,STARLINK-4290,PAYLOAD,2023-04-05 13:15:40,15.08840073,0.000123,53.214,213.6606,91.2743,268.839,8.999e-05,1.145e-05,0.0,0 STARLINK-4290,1 53006U 22076W   23095.55255150  .00001145  00000-0  89990-4 0  9998,2 53006  53.2140 213.6606 0001230  91.2743 268.8390 15.08840073 41442,6917.88,95.438,540.596,538.894,0.0
53006.0,STARLINK-4290,PAYLOAD,2023-04-05 14:51:03,15.08841806,0.000127,53.2157,213.3653,93.1084,267.0054,9.6235e-05,1.244e-05,0.0,0 STARLINK-4290,1 53006U 22076W   23095.61879068  .00001244  00000-0  96235-4 0  9995,2 53006  53.2157 213.3653 0001270  93.1084 267.0054 15.08841806 41928,6917.875,95.437,540.618,538.861,0.0
53006.0,STARLINK-4290,PAYLOAD,2023-04-06 11:31:04,15.08842995,0.000139,53.2154,209.5012,99.3821,260.7328,6.4018e-05,7.31e-06,0.0,0 STARLINK-4290,1 53006U 22076W   23096.47991017  .00000731  00000-0  64018-4 0  9993,2 53006  53.2154 209.5012 0001390  99.3821 260.7328 15.08842995 41587,6917.871,95.437,540.698,538.775,0.0
53006.0,STARLINK-4290,PAYLOAD,2023-04-06 16:17:13,15.08847968,0.0001165,53.2157,208.6116,85.4571,274.6555,0.00019169,2.765e-05,0.0,0 STARLINK-4290,1 53006U 22076W   23096.67862760  .00002765  00000-0  19169-3 0  9992,2 53006  53.2157 208.6116 0001165  85.4571 274.6555 15.08847968 42080,6917.856,95.437,540.527,538.915,0.0
53006.0,STARLINK-4290,PAYLOAD,2023-04-07 06:35:42,15.08835885,0.0001203,53.2151,205.9332,100.0824,260.0304,1.5173e-05,-4.6e-07,0.0,0 STARLINK-4290,1 53006U 22076W   23097.27479345 -.00000046  00000-0  15173-4 0  9995,2 53006  53.2151 205.9332 0001203 100.0824 260.0304 15.08835885 42178,6917.893,95.438,540.59,538.926,0.0
53006.0,STARLINK-4290,PAYLOAD,2023-04-07 11:21:51,15.08835909,0.0001212,53.2151,205.0408,100.5447,259.5682,1.3819e-05,-6.8e-07,0.0,0 STARLINK-4290,1 53006U 22076W   23097.47351408 -.00000068  00000-0  13819-4 0  9995,2 53006  53.2151 205.0408 0001212 100.5447 259.5682 15.08835909 41739,6917.893,95.438,540.596,538.919,0.0
53006.0,STARLINK-4290,PAYLOAD,2023-04-08 12:48:01,15.08839983,0.0001265,53.2149,200.2828,87.7175,272.3962,-1.4234e-05,-5.14e-06,0.0,0 STARLINK-4290,1 53006U 22076W   23098.53335462 -.00000514  00000-0 -14234-4 0  9994,2 53006  53.2149 200.2828 0001265  87.7175 272.3962 15.08839983 42361,6917.88,95.438,540.621,538.87,0.0
53006.0,STARLINK-4290,PAYLOAD,2023-04-09 11:03:25,15.08839725,0.0001373,53.2156,196.1203,89.9285,270.1865,0.0001464,2.043e-05,0.0,0 STARLINK-4290,1 53006U 22076W   23099.46071701  .00002043  00000-0  14640-3 0  9997,2 53006  53.2156 196.1203 0001373  89.9285 270.1865 15.08839725 42031,6917.881,95.438,540.696,538.796,0.0
53006.0,STARLINK-4290,PAYLOAD,2023-04-09 12:38:49,15.08840936,0.000137,53.2154,195.8229,87.518,272.5969,0.00014961,2.094e-05,0.0,0 STARLINK-4290,1 53006U 22076W   23099.52695653  .00002094  00000-0  14961-3 0  9994,2 53006  53.2154 195.8229 0001370  87.5180 272.5969 15.08840936 42046,6917.878,95.437,540.69,538.795,0.0
53006.0,STARLINK-4290,PAYLOAD,2023-04-09 23:46:30,15.08842977,0.0001398,53.2148,193.7414,72.3933,287.7212,0.00019418,2.804e-05,0.0,0 STARLINK-4290,1 53006U 22076W   23099.99063638  .00002804  00000-0  19418-3 0  9998,2 53006  53.2148 193.7414 0001398  72.3933 287.7212 15.08842977 42585,6917.871,95.437,540.703,538.769,0.0
53006.0,STARLINK-4290,PAYLOAD,2023-04-10 06:08:03,15.08841058,0.0001471,53.2146,192.5517,76.7078,283.4078,0.00014894,2.083e-05,0.0,0 STARLINK-4290,1 53006U 22076W   23100.25559809  .00002083  00000-0  14894-3 0  9992,2 53006  53.2146 192.5517 0001471  76.7078 283.4078 15.08841058 42159,6917.877,95.437,540.76,538.725,0.0
53006.0,STARLINK-4290,PAYLOAD,2023-04-11 05:58:50,15.08845422,0.0001598,53.2129,188.0914,76.0979,284.0191,0.00010964,1.458e-05,0.0,0 STARLINK-4290,1 53006U 22076W   23101.24919389  .00001458  00000-0  10964-3 0  9994,2 53006  53.2129 188.0914 0001598  76.0979 284.0191 15.08845422 42774,6917.864,95.437,540.834,538.623,0.0
53006.0,STARLINK-4290,PAYLOAD,2023-04-11 12:20:22,15.08846203,0.0001371,53.2136,186.9012,77.6609,282.4537,0.00012366,1.681e-05,0.0,0 STARLINK-4290,1 53006U 22076W   23101.51415218  .00001681  00000-0  12366-3 0  9992,2 53006  53.2136 186.9012 0001371  77.6609 282.4537 15.08846203 42341,6917.861,95.437,540.675,538.778,0.0
53006.0,STARLINK-4290,PAYLOAD,2023-04-12 05:49:37,15.08837497,0.0001326,53.2155,183.6298,99.4899,260.6243,7.9291e-05,9.74e-06,0.0,0 STARLINK-4290,1 53006U 22076W   23102.24279361  .00000974  00000-0  79291-4 0  9995,2 53006  53.2155 183.6298 0001326  99.4899 260.6243 15.08837497 42926,6917.888,95.438,540.67,538.836,0.0
53006.0,STARLINK-4290,PAYLOAD,2023-04-12 12:11:10,15.08837422,0.000123,53.2148,182.4394,95.8602,264.2531,-1.1521e-06,-3.06e-06,0.0,0 STARLINK-4290,1 53006U 22076W   23102.50775621 -.00000306  00000-0 -11521-5 0  9998,2 53006  53.2148 182.4394 0001230  95.8602 264.2531 15.08837422 42498,6917.888,95.438,540.604,538.902,0.0
53006.0,STARLINK-4290,PAYLOAD,2023-04-13 10:26:34,15.08812553,0.0001182,53.2158,178.2772,97.2877,262.8249,0.00034237,5.161e-05,0.0,0 STARLINK-4290,1 53006U 22076W   23103.43512549  .00005161  00000-0  34237-3 0  9998,2 53006  53.2158 178.2772 0001182  97.2877 262.8249 15.08812553 42632,6917.964,95.439,540.647,539.012,0.0
53006.0,STARLINK-4290,PAYLOAD,2023-04-14 10:17:21,15.08831731,0.0001378,53.2162,173.8169,102.0876,258.0271,0.00014053,1.949e-05,0.0,0 STARLINK-4290,1 53006U 22076W   23104.42872018  .00001949  00000-0  14053-3 0  9992,2 53006  53.2162 173.8169 0001378 102.0876 258.0271 15.08831731 43259,6917.906,95.438,540.724,538.817,0.0
53006.0,STARLINK-4290,PAYLOAD,2023-04-14 15:03:30,15.08843323,0.0001303,53.2166,172.9249,99.3273,260.7867,0.00014688,2.051e-05,0.0,0 STARLINK-4290,1 53006U 22076W   23104.62743320  .00002051  00000-0  14688-3 0  9996,2 53006  53.2166 172.9249 0001303  99.3273 260.7867 15.08843323 43283,6917.87,95.437,540.637,538.834,0.0
53006.0,STARLINK-4290,PAYLOAD,2023-04-15 11:43:31,15.08843738,0.0001312,53.2154,169.0578,96.4912,263.623,0.0001285,1.758e-05,0.0,0 STARLINK-4290,1 53006U 22076W   23105.48855657  .00001758  00000-0  12850-3 0  9990,2 53006  53.2154 169.0578 0001312  96.4912 263.6230 15.08843738 43411,6917.869,95.437,540.642,538.826,0.0
53006.0,STARLINK-4290,PAYLOAD,2023-04-15 21:15:50,15.08831931,6.75e-05,53.2161,167.2764,93.3347,266.7722,3.7647e-05,3.11e-06,0.0,0 STARLINK-4290,1 53006U 22076W   23105.88600404  .00000311  00000-0  37647-4 0  9998,2 53006  53.2161 167.2764 0000675  93.3347 266.7722 15.08831931 43473,6917.905,95.438,540.237,539.303,0.0
53006.0,STARLINK-4290,PAYLOAD,2023-04-16 11:34:18,15.08840784,0.0001335,53.2148,164.5981,79.6282,280.4861,2.2952e-05,7.7e-07,0.0,0 STARLINK-4290,1 53006U 22076W   23106.48216052  .00000077  00000-0  22952-4 0  9999,2 53006  53.2148 164.5981 0001335  79.6282 280.4861 15.08840784 43099,6917.878,95.438,540.667,538.819,0.0
53006.0,STARLINK-4290,PAYLOAD,2023-04-16 21:06:37,15.08833162,1.06e-05,53.2143,162.8151,30.0201,330.0797,-8.5846e-05,-1.653e-05,0.0,0 STARLINK-4290,1 53006U 22076W   23106.87959828 -.00001653  00000-0 -85846-4 0  9991,2 53006  53.2143 162.8151 0000106  30.0201 330.0797 15.08833162 43150,6917.901,95.438,539.84,539.693,0.0
53006.0,STARLINK-4290,PAYLOAD,2023-04-17 13:00:28,15.08845016,0.0001311,53.2134,159.8377,88.1371,271.9771,0.00023331,3.428e-05,0.0,0 STARLINK-4290,1 53006U 22076W   23107.54200187  .00003428  00000-0  23331-3 0  9993,2 53006  53.2134 159.8377 0001311  88.1371 271.9771 15.08845016 43726,6917.865,95.437,540.637,538.823,0.0
53006.0,STARLINK-4290,PAYLOAD,2023-04-17 20:57:24,15.08844312,0.00015,53.2131,158.3522,76.9846,283.1314,0.0003877,5.888e-05,0.0,0 STARLINK-4290,1 53006U 22076W   23107.87320445  .00005888  00000-0  38770-3 0  9994,2 53006  53.2131 158.3522 0001500  76.9846 283.1314 15.08844312 43301,6917.867,95.437,540.77,538.695,0.0
53006.0,STARLINK-4290,PAYLOAD,2023-04-18 09:40:29,15.08848559,0.0001598,53.2137,155.9724,76.9742,283.1428,0.00045628,6.983e-05,0.0,0 STARLINK-4290,1 53006U 22076W   23108.40312341  .00006983  00000-0  45628-3 0  9997,2 53006  53.2137 155.9724 0001598  76.9742 283.1428 15.08848559 43387,6917.854,95.437,540.825,538.614,0.0
53006.0,STARLINK-4290,PAYLOAD,2023-04-18 14:26:39,15.08858867,0.0001682,53.2139,155.0807,76.5223,283.5956,0.00068129,0.00010577,0.0,0 STARLINK-4290,1 53006U 22076W   23108.60184032  .00010577  00000-0  68129-3 0  9998,2 53006  53.2139 155.0807 0001682  76.5223 283.5956 15.08858867 43884,6917.823,95.436,540.851,538.524,0.0
53006.0,STARLINK-4290,PAYLOAD,2023-04-19 03:09:44,15.08842314,0.0001509,53.2133,152.701,81.7363,278.3801,0.00015643,2.203e-05,0.0,0 STARLINK-4290,1 53006U 22076W   23109.13176420  .00002203  00000-0  15643-3 0  9999,2 53006  53.2133 152.7010 0001509  81.7363 278.3801 15.08842314 43969,6917.873,95.437,540.782,538.694,0.0
53006.0,STARLINK-4290,PAYLOAD,2023-04-19 09:31:16,15.08843262,0.0001539,53.2136,151.5111,88.6396,271.4772,0.00019656,2.842e-05,0.0,0 STARLINK-4290,1 53006U 22076W   23109.39672367  .00002842  00000-0  19656-3 0  9995,2 53006  53.2136 151.5111 0001539  88.6396 271.4772 15.08843262 43533,6917.87,95.437,540.8,538.671,0.0
